{
  "norad_id": 56725,
  "name": "ONEWEB-0721",
  "history": [
    {
      "epoch": "2026-03-28T18:57:09.870912Z",
      "apogee_km": 1176.7922823412373,
      "perigee_km": 1173.8598769044656,
      "latitude_deg": -4.279335585310184e-06,
      "longitude_deg": 0.6923736164644229,
      "height_km": 1178.3139105644477,
      "semi_major_axis_km": 7553.463079622851,
      "eccentricity": 0.00019411,
      "inclination_deg": 86.6727,
      "raan_deg": 111.1886,
      "arg_perigee_deg": 93.8087,
      "mean_anomaly_deg": 266.3268,
      "mean_motion_rev_day": 13.224632
    },
    {
      "epoch": "2026-03-29T00:24:00.745056Z",
      "apogee_km": 1176.784646963546,
      "perigee_km": 1173.8614579232508,
      "latitude_deg": -3.713332647099252e-05,
      "longitude_deg": -81.31582339712357,
      "height_km": 1178.3080824603526,
      "semi_major_axis_km": 7553.460052443398,
      "eccentricity": 0.0001935,
      "inclination_deg": 86.6726,
      "raan_deg": 111.1161,
      "arg_perigee_deg": 93.7101,
      "mean_anomaly_deg": 266.4253,
      "mean_motion_rev_day": 13.22463995
    },
    {
      "epoch": "2026-03-30T01:49:18.495264Z",
      "apogee_km": 1176.7870793147667,
      "perigee_km": 1173.8608685334684,
      "latitude_deg": 3.342764491629836e-05,
      "longitude_deg": -104.02220583050948,
      "height_km": 1178.3015977346301,
      "semi_major_axis_km": 7553.460973924117,
      "eccentricity": 0.0001937,
      "inclination_deg": 86.6725,
      "raan_deg": 110.7777,
      "arg_perigee_deg": 93.4164,
      "mean_anomaly_deg": 266.7191,
      "mean_motion_rev_day": 13.22463753
    },
    {
      "epoch": "2026-03-30T01:49:18.496128Z",
      "apogee_km": 1176.787456987815,
      "perigee_km": 1173.8604908604193,
      "latitude_deg": 2.7683856259211598e-05,
      "longitude_deg": -104.02220977262391,
      "height_km": 1178.3016202459776,
      "semi_major_axis_km": 7553.460973924117,
      "eccentricity": 0.00019375,
      "inclination_deg": 86.6725,
      "raan_deg": 110.7777,
      "arg_perigee_deg": 93.4164,
      "mean_anomaly_deg": 266.7191,
      "mean_motion_rev_day": 13.22463753
    },
    {
      "epoch": "2026-03-30T12:43:00.371424Z",
      "apogee_km": 1176.7820432488652,
      "perigee_km": 1173.8655009755375,
      "latitude_deg": 8.015425868618087e-06,
      "longitude_deg": 91.96086888605846,
      "height_km": 1178.3027739327606,
      "semi_major_axis_km": 7553.460772112201,
      "eccentricity": 0.00019306,
      "inclination_deg": 86.6724,
      "raan_deg": 110.6327,
      "arg_perigee_deg": 93.4814,
      "mean_anomaly_deg": 266.654,
      "mean_motion_rev_day": 13.22463806
    },
    {
      "epoch": "2026-03-30T18:09:51.283584Z",
      "apogee_km": 1176.7797340415118,
      "perigee_km": 1173.8665155405824,
      "latitude_deg": 2.959651215716994e-05,
      "longitude_deg": 9.95261652350012,
      "height_km": 1178.297826418313,
      "semi_major_axis_km": 7553.460124791047,
      "eccentricity": 0.00019284,
      "inclination_deg": 86.6723,
      "raan_deg": 110.5603,
      "arg_perigee_deg": 93.316,
      "mean_anomaly_deg": 266.8194,
      "mean_motion_rev_day": 13.22463976
    },
    {
      "epoch": "2026-03-31T17:46:11.985600Z",
      "apogee_km": 1176.7723862363891,
      "perigee_km": 1173.8733683354867,
      "latitude_deg": 2.6467740458291852e-05,
      "longitude_deg": 14.582705535573186,
      "height_km": 1178.2835380066015,
      "semi_major_axis_km": 7553.459877285938,
      "eccentricity": 0.0001919,
      "inclination_deg": 86.6722,
      "raan_deg": 110.2461,
      "arg_perigee_deg": 92.776,
      "mean_anomaly_deg": 267.3593,
      "mean_motion_rev_day": 13.22464041
    },
    {
      "epoch": "2026-04-01T19:11:29.649408Z",
      "apogee_km": 1176.774238410143,
      "perigee_km": 1173.869178190931,
      "latitude_deg": -2.4094470905514415e-05,
      "longitude_deg": -8.123422155891044,
      "height_km": 1178.275759301705,
      "semi_major_axis_km": 7553.458708300537,
      "eccentricity": 0.0001923,
      "inclination_deg": 86.6721,
      "raan_deg": 109.9076,
      "arg_perigee_deg": 92.5093,
      "mean_anomaly_deg": 267.626,
      "mean_motion_rev_day": 13.22464348
    },
    {
      "epoch": "2026-04-02T18:47:50.374752Z",
      "apogee_km": 1176.7779440401546,
      "perigee_km": 1173.863819989273,
      "latitude_deg": -9.412122819170451e-05,
      "longitude_deg": -3.4935350068524107,
      "height_km": 1178.2735003715877,
      "semi_major_axis_km": 7553.4578820147135,
      "eccentricity": 0.0001929,
      "inclination_deg": 86.6721,
      "raan_deg": 109.5933,
      "arg_perigee_deg": 92.4451,
      "mean_anomaly_deg": 267.6902,
      "mean_motion_rev_day": 13.22464565
    },
    {
      "epoch": "2026-04-02T18:47:50.375616Z",
      "apogee_km": 1176.7777891624928,
      "perigee_km": 1173.8639672513973,
      "latitude_deg": 8.594525799299356e-06,
      "longitude_deg": -3.493532674280985,
      "height_km": 1178.2734745394127,
      "semi_major_axis_km": 7553.457878206945,
      "eccentricity": 0.00019288,
      "inclination_deg": 86.6721,
      "raan_deg": 109.5933,
      "arg_perigee_deg": 92.4451,
      "mean_anomaly_deg": 267.6903,
      "mean_motion_rev_day": 13.22464566
    },
    {
      "epoch": "2026-04-03T12:57:20.219040Z",
      "apogee_km": 1176.7962830950246,
      "perigee_km": 1173.848923157885,
      "latitude_deg": 5.264532318569282e-05,
      "longitude_deg": 83.14458791968818,
      "height_km": 1178.2726250046587,
      "semi_major_axis_km": 7553.459603126455,
      "eccentricity": 0.0001951,
      "inclination_deg": 86.6722,
      "raan_deg": 109.3515,
      "arg_perigee_deg": 92.3189,
      "mean_anomaly_deg": 267.8168,
      "mean_motion_rev_day": 13.22464113
    },
    {
      "epoch": "2026-04-04T12:33:40.917600Z",
      "apogee_km": 1176.8007992894818,
      "perigee_km": 1173.842411692056,
      "latitude_deg": -3.601441295640586e-05,
      "longitude_deg": 87.77458457052413,
      "height_km": 1178.263247998389,
      "semi_major_axis_km": 7553.458605490769,
      "eccentricity": 0.00019583,
      "inclination_deg": 86.6722,
      "raan_deg": 109.0372,
      "arg_perigee_deg": 91.9855,
      "mean_anomaly_deg": 268.1502,
      "mean_motion_rev_day": 13.22464375
    },
    {
      "epoch": "2026-04-05T13:58:58.581408Z",
      "apogee_km": 1176.7955962913866,
      "perigee_km": 1173.8479345427695,
      "latitude_deg": 5.0685409665462543e-05,
      "longitude_deg": 65.06856197306914,
      "height_km": 1178.272365807023,
      "semi_major_axis_km": 7553.458765417077,
      "eccentricity": 0.00019512,
      "inclination_deg": 86.6721,
      "raan_deg": 108.6988,
      "arg_perigee_deg": 92.3412,
      "mean_anomaly_deg": 267.7945,
      "mean_motion_rev_day": 13.22464333
    },
    {
      "epoch": "2026-04-05T17:36:52.464384Z",
      "apogee_km": 1176.7886089992935,
      "perigee_km": 1173.8503144356846,
      "latitude_deg": 1.7521450283599534e-05,
      "longitude_deg": 10.396701468125611,
      "height_km": 1178.2627474156832,
      "semi_major_axis_km": 7553.456461717488,
      "eccentricity": 0.0001945,
      "inclination_deg": 86.6721,
      "raan_deg": 108.6506,
      "arg_perigee_deg": 92.0626,
      "mean_anomaly_deg": 268.073,
      "mean_motion_rev_day": 13.22464938
    },
    {
      "epoch": "2026-04-06T02:41:37.389984Z",
      "apogee_km": 1176.7998998557769,
      "perigee_km": 1173.843174046072,
      "latitude_deg": 7.452512939456358e-05,
      "longitude_deg": -126.28405326589534,
      "height_km": 1178.2577651032698,
      "semi_major_axis_km": 7553.458536950924,
      "eccentricity": 0.00019572,
      "inclination_deg": 86.672,
      "raan_deg": 108.5299,
      "arg_perigee_deg": 91.7774,
      "mean_anomaly_deg": 268.3584,
      "mean_motion_rev_day": 13.22464393
    },
    {
      "epoch": "2026-04-07T11:22:42.943296Z",
      "apogee_km": 1176.79306936811,
      "perigee_km": 1173.8494866771653,
      "latitude_deg": -2.825798475622306e-05,
      "longitude_deg": 101.66537823793966,
      "height_km": 1178.2526017085993,
      "semi_major_axis_km": 7553.458278022637,
      "eccentricity": 0.00019485,
      "inclination_deg": 86.6721,
      "raan_deg": 108.0948,
      "arg_perigee_deg": 91.5931,
      "mean_anomaly_deg": 268.5425,
      "mean_motion_rev_day": 13.22464461
    },
    {
      "epoch": "2026-04-07T18:38:30.869952Z",
      "apogee_km": 1176.7969406799102,
      "perigee_km": 1173.8465596920887,
      "latitude_deg": -8.444837324244681e-05,
      "longitude_deg": -7.679413964082687,
      "height_km": 1178.2397371189616,
      "semi_major_axis_km": 7553.458750186,
      "eccentricity": 0.0001953,
      "inclination_deg": 86.6721,
      "raan_deg": 107.998,
      "arg_perigee_deg": 91.0714,
      "mean_anomaly_deg": 269.0642,
      "mean_motion_rev_day": 13.22464337
    },
    {
      "epoch": "2026-04-08T10:59:03.603840Z",
      "apogee_km": 1176.777614593907,
      "perigee_km": 1173.861225070209,
      "latitude_deg": 7.303276878235913e-05,
      "longitude_deg": 106.29544228829663,
      "height_km": 1178.2330509517071,
      "semi_major_axis_km": 7553.456419832058,
      "eccentricity": 0.00019305,
      "inclination_deg": 86.6721,
      "raan_deg": 107.7804,
      "arg_perigee_deg": 90.9121,
      "mean_anomaly_deg": 269.2234,
      "mean_motion_rev_day": 13.22464949
    },
    {
      "epoch": "2026-04-09T12:24:21.316896Z",
      "apogee_km": 1176.7826220998631,
      "perigee_km": 1173.8579234438457,
      "latitude_deg": 8.403205376889246e-06,
      "longitude_deg": 83.58920349253125,
      "height_km": 1178.2263236551014,
      "semi_major_axis_km": 7553.457272771854,
      "eccentricity": 0.0001936,
      "inclination_deg": 86.672,
      "raan_deg": 107.442,
      "arg_perigee_deg": 90.6126,
      "mean_anomaly_deg": 269.5229,
      "mean_motion_rev_day": 13.22464725
    }
  ]
}